[{"OBJECT_NAME":"STARLINK-1991","OBJECT_ID":"2021-009AR","EPOCH":"2026-03-09T22:30:21.180960","MEAN_MOTION":15.66805566,"ECCENTRICITY":0.00042699,"INCLINATION":53.0455,"RA_OF_ASC_NODE":331.5421,"ARG_OF_PERICENTER":79.3499,"MEAN_ANOMALY":280.7997,"EPHEMERIS_TYPE":0,"CLASSIFICATION_TYPE":"U","NORAD_CAT_ID":47587,"ELEMENT_SET_NO":999,"REV_AT_EPOCH":28152,"BSTAR":0.00092748731,"MEAN_MOTION_DOT":0.00100464,"MEAN_MOTION_DDOT":0},{"OBJECT_NAME":"FLOCK 4BE-33","OBJECT_ID":"2024-149AL","EPOCH":"2026-03-09T17:20:04.915968","MEAN_MOTION":15.65897746,"ECCENTRICITY":0.00075386,"INCLINATION":97.3675,"RA_OF_ASC_NODE":153.2317,"ARG_OF_PERICENTER":245.686,"MEAN_ANOMALY":114.3613,"EPHEMERIS_TYPE":0,"CLASSIFICATION_TYPE":"U","NORAD_CAT_ID":60502,"ELEMENT_SET_NO":999,"REV_AT_EPOCH":8711,"BSTAR":0.0014774544,"MEAN_MOTION_DOT":0.00152703,"MEAN_MOTION_DDOT":0}]
